[{"OBJECT_NAME":"QIANFAN-24","OBJECT_ID":"2024-185F","EPOCH":"2026-03-09T23:10:13.381824","MEAN_MOTION":14.23940693,"ECCENTRICITY":0.00101265,"INCLINATION":88.9739,"RA_OF_ASC_NODE":66.9556,"ARG_OF_PERICENTER":26.7081,"MEAN_ANOMALY":333.4631,"EPHEMERIS_TYPE":0,"CLASSIFICATION_TYPE":"U","NORAD_CAT_ID":61557,"ELEMENT_SET_NO":999,"REV_AT_EPOCH":8243,"BSTAR":0.00040785949,"MEAN_MOTION_DOT":9.49e-6,"MEAN_MOTION_DDOT":0},{"OBJECT_NAME":"FENGYUN 1C DEB","OBJECT_ID":"1999-025CHD","EPOCH":"2026-03-08T05:51:01.164672","MEAN_MOTION":14.10302181,"ECCENTRICITY":0.00595153,"INCLINATION":98.7787,"RA_OF_ASC_NODE":56.4806,"ARG_OF_PERICENTER":138.4538,"MEAN_ANOMALY":222.1179,"EPHEMERIS_TYPE":0,"CLASSIFICATION_TYPE":"U","NORAD_CAT_ID":31815,"ELEMENT_SET_NO":999,"REV_AT_EPOCH":96744,"BSTAR":0.00010007022,"MEAN_MOTION_DOT":1.38e-6,"MEAN_MOTION_DDOT":0}]
